[{"OBJECT_NAME":"TEVEL2-1","OBJECT_ID":"2025-052H","EPOCH":"2026-03-09T15:32:51.927072","MEAN_MOTION":15.30341923,"ECCENTRICITY":0.0004767,"INCLINATION":97.3991,"RA_OF_ASC_NODE":324.7682,"ARG_OF_PERICENTER":104.8919,"MEAN_ANOMALY":255.2849,"EPHEMERIS_TYPE":0,"CLASSIFICATION_TYPE":"U","NORAD_CAT_ID":63217,"ELEMENT_SET_NO":999,"REV_AT_EPOCH":5485,"BSTAR":0.000706,"MEAN_MOTION_DOT":0.00020683,"MEAN_MOTION_DDOT":0},{"OBJECT_NAME":"STARLINK-34557","OBJECT_ID":"2025-144C","EPOCH":"2026-03-09T15:09:26.954208","MEAN_MOTION":15.30196866,"ECCENTRICITY":0.0001265,"INCLINATION":53.16,"RA_OF_ASC_NODE":181.2678,"ARG_OF_PERICENTER":65.2242,"MEAN_ANOMALY":294.8891,"EPHEMERIS_TYPE":0,"CLASSIFICATION_TYPE":"U","NORAD_CAT_ID":64726,"ELEMENT_SET_NO":999,"REV_AT_EPOCH":3970,"BSTAR":0.0014798,"MEAN_MOTION_DOT":0.00043723,"MEAN_MOTION_DDOT":0}]
