TEVEL2-1                
1 63217U 25052H   26068.64782323  .00020683  00000+0  70600-3 0  9994
2 63217  97.3991 324.7682 0004767 104.8919 255.2849 15.30341923 54855
STARLINK-34557          
1 64726U 25144C   26068.63156197  .00043723  00000+0  14798-2 0  9990
2 64726  53.1600 181.2678 0001265  65.2242 294.8891 15.30196866 39705
